{
  "type": "FeatureCollection",
  "features": [
    {
      "type": "Feature",
      "properties": {
        "norad_id": 36280,
        "name": "FENGYUN 1C DEB",
        "group": "fengyun-1c-debris",
        "lat": 23.75359059971404,
        "lon": -169.06518826797253,
        "alt_km": 840.3163122365349,
        "timestamp": "2025-12-03T19:33:07.264362+00:00",
        "meta_object_name": "FENGYUN 1C DEB",
        "meta_object_id": "1999-025DXH",
        "meta_epoch": "2025-12-02T19:47:23.057952",
        "meta_mean_motion": 14.09689517,
        "meta_eccentricity": 0.00636593,
        "meta_inclination": 98.7683,
        "meta_ra_of_asc_node": 6.0758,
        "meta_arg_of_pericenter": 93.3379,
        "meta_mean_anomaly": 80.0221,
        "meta_ephemeris_type": 0,
        "meta_classification_type": "U",
        "meta_norad_cat_id": 36280,
        "meta_element_set_no": 999,
        "meta_rev_at_epoch": 86214,
        "meta_bstar": 0.0011452484,
        "meta_mean_motion_dot": 2.005e-05,
        "meta_mean_motion_ddot": 0,
        "tle_line1": "1 36280U 99025DXH 25336.82457243  .00002005  00000+0  11452-2 0  9999",
        "tle_line2": "2 36280  98.7683   6.0758 0063659  93.3379  80.0221 14.09689517862145"
      },
      "geometry": {
        "type": "Point",
        "coordinates": [
          -169.06518826797253,
          23.75359059971404
        ]
      }
    },
    {
      "type": "Feature",
      "properties": {
        "norad_id": 36281,
        "name": "FENGYUN 1C DEB",
        "group": "fengyun-1c-debris",
        "lat": -65.52949135067715,
        "lon": 59.229299548671506,
        "alt_km": 1121.4264160247312,
        "timestamp": "2025-12-03T19:33:07.264372+00:00",
        "meta_object_name": "FENGYUN 1C DEB",
        "meta_object_id": "1999-025DXJ",
        "meta_epoch": "2025-12-03T06:00:32.934816",
        "meta_mean_motion": 13.60174238,
        "meta_eccentricity": 0.0288974,
        "meta_inclination": 99.2571,
        "meta_ra_of_asc_node": 259.6936,
        "meta_arg_of_pericenter": 135.4221,
        "meta_mean_anomaly": 227.0558,
        "meta_ephemeris_type": 0,
        "meta_classification_type": "U",
        "meta_norad_cat_id": 36281,
        "meta_element_set_no": 999,
        "meta_rev_at_epoch": 84388,
        "meta_bstar": 0.00321,
        "meta_mean_motion_dot": 3.127e-05,
        "meta_mean_motion_ddot": 0,
        "tle_line1": "1 36281U 99025DXJ 25337.25038119  .00003127  00000+0  32100-2 0  9994",
        "tle_line2": "2 36281  99.2571 259.6936 0288974 135.4221 227.0558 13.60174238843886"
      },
      "geometry": {
        "type": "Point",
        "coordinates": [
          59.229299548671506,
          -65.52949135067715
        ]
      }
    },
    {
      "type": "Feature",
      "properties": {
        "norad_id": 36283,
        "name": "FENGYUN 1C DEB",
        "group": "fengyun-1c-debris",
        "lat": 76.17481181066549,
        "lon": -101.48091150168587,
        "alt_km": 495.0294425273514,
        "timestamp": "2025-12-03T19:33:07.264382+00:00",
        "meta_object_name": "FENGYUN 1C DEB",
        "meta_object_id": "1999-025DXL",
        "meta_epoch": "2025-11-28T03:35:45.168576",
        "meta_mean_motion": 15.05092252,
        "meta_eccentricity": 0.00695379,
        "meta_inclination": 99.4205,
        "meta_ra_of_asc_node": 294.0447,
        "meta_arg_of_pericenter": 95.6406,
        "meta_mean_anomaly": 265.275,
        "meta_ephemeris_type": 0,
        "meta_classification_type": "U",
        "meta_norad_cat_id": 36283,
        "meta_element_set_no": 999,
        "meta_rev_at_epoch": 66446,
        "meta_bstar": 0.0018499593,
        "meta_mean_motion_dot": 0.00027782,
        "meta_mean_motion_ddot": 0,
        "tle_line1": "1 36283U 99025DXL 25332.14982834  .00027782  00000+0  18500-2 0  9992",
        "tle_line2": "2 36283  99.4205 294.0447 0069537  95.6406 265.2750 15.05092252664467"
      },
      "geometry": {
        "type": "Point",
        "coordinates": [
          -101.48091150168587,
          76.17481181066549
        ]
      }
    },
    {
      "type": "Feature",
      "properties": {
        "norad_id": 36644,
        "name": "FENGYUN 1C DEB",
        "group": "fengyun-1c-debris",
        "lat": 76.02893750616904,
        "lon": -25.80626734985082,
        "alt_km": 1071.5619071897654,
        "timestamp": "2025-12-03T19:33:07.264392+00:00",
        "meta_object_name": "FENGYUN 1C DEB",
        "meta_object_id": "1999-025DXN",
        "meta_epoch": "2025-11-26T15:39:07.759296",
        "meta_mean_motion": 13.59124847,
        "meta_eccentricity": 0.02860442,
        "meta_inclination": 98.4214,
        "meta_ra_of_asc_node": 111.4857,
        "meta_arg_of_pericenter": 222.436,
        "meta_mean_anomaly": 135.4347,
        "meta_ephemeris_type": 0,
        "meta_classification_type": "U",
        "meta_norad_cat_id": 36644,
        "meta_element_set_no": 999,
        "meta_rev_at_epoch": 61349,
        "meta_bstar": 0.0017692716,
        "meta_mean_motion_dot": 1.666e-05,
        "meta_mean_motion_ddot": 0,
        "tle_line1": "1 36644U 99025DXN 25330.65217314  .00001666  00000+0  17693-2 0  9996",
        "tle_line2": "2 36644  98.4214 111.4857 0286044 222.4360 135.4347 13.59124847613497"
      },
      "geometry": {
        "type": "Point",
        "coordinates": [
          -25.80626734985082,
          76.02893750616904
        ]
      }
    },
    {
      "type": "Feature",
      "properties": {
        "norad_id": 36647,
        "name": "FENGYUN 1C DEB",
        "group": "fengyun-1c-debris",
        "lat": 36.579356324055105,
        "lon": 116.97564614181364,
        "alt_km": 869.8199280835652,
        "timestamp": "2025-12-03T19:33:07.264402+00:00",
        "meta_object_name": "FENGYUN 1C DEB",
        "meta_object_id": "1999-025DXR",
        "meta_epoch": "2025-12-03T03:49:03.801792",
        "meta_mean_motion": 13.88714349,
        "meta_eccentricity": 0.02388104,
        "meta_inclination": 96.1218,
        "meta_ra_of_asc_node": 121.1119,
        "meta_arg_of_pericenter": 327.8812,
        "meta_mean_anomaly": 30.7989,
        "meta_ephemeris_type": 0,
        "meta_classification_type": "U",
        "meta_norad_cat_id": 36647,
        "meta_element_set_no": 999,
        "meta_rev_at_epoch": 30279,
        "meta_bstar": 0.0026805996,
        "meta_mean_motion_dot": 4.035e-05,
        "meta_mean_motion_ddot": 0,
        "tle_line1": "1 36647U 99025DXR 25337.15907178  .00004035  00000+0  26806-2 0  9994",
        "tle_line2": "2 36647  96.1218 121.1119 0238810 327.8812  30.7989 13.88714349302799"
      },
      "geometry": {
        "type": "Point",
        "coordinates": [
          116.97564614181364,
          36.579356324055105
        ]
      }
    },
    {
      "type": "Feature",
      "properties": {
        "norad_id": 36652,
        "name": "FENGYUN 1C DEB",
        "group": "fengyun-1c-debris",
        "lat": -13.574140419759457,
        "lon": -122.32604251307677,
        "alt_km": 857.112845028666,
        "timestamp": "2025-12-03T19:33:07.264412+00:00",
        "meta_object_name": "FENGYUN 1C DEB",
        "meta_object_id": "1999-025DXW",
        "meta_epoch": "2025-12-02T12:15:51.315840",
        "meta_mean_motion": 14.22693053,
        "meta_eccentricity": 0.00508837,
        "meta_inclination": 98.943,
        "meta_ra_of_asc_node": 58.53,
        "meta_arg_of_pericenter": 23.5446,
        "meta_mean_anomaly": 336.8045,
        "meta_ephemeris_type": 0,
        "meta_classification_type": "U",
        "meta_norad_cat_id": 36652,
        "meta_element_set_no": 999,
        "meta_rev_at_epoch": 64179,
        "meta_bstar": 0.002092033,
        "meta_mean_motion_dot": 4.703e-05,
        "meta_mean_motion_ddot": 0,
        "tle_line1": "1 36652U 99025DXW 25336.51101060  .00004703  00000+0  20920-2 0  9998",
        "tle_line2": "2 36652  98.9430  58.5300 0050883  23.5446 336.8045 14.22693053641797"
      },
      "geometry": {
        "type": "Point",
        "coordinates": [
          -122.32604251307677,
          -13.574140419759457
        ]
      }
    },
    {
      "type": "Feature",
      "properties": {
        "norad_id": 36657,
        "name": "FENGYUN 1C DEB",
        "group": "fengyun-1c-debris",
        "lat": 78.9720041797878,
        "lon": 69.107822686283,
        "alt_km": 594.610659121744,
        "timestamp": "2025-12-03T19:33:07.264422+00:00",
        "meta_object_name": "FENGYUN 1C DEB",
        "meta_object_id": "1999-025DYB",
        "meta_epoch": "2025-12-02T08:45:37.134432",
        "meta_mean_motion": 14.65384436,
        "meta_eccentricity": 0.01060994,
        "meta_inclination": 99.4117,
        "meta_ra_of_asc_node": 125.7813,
        "meta_arg_of_pericenter": 98.4012,
        "meta_mean_anomaly": 262.9231,
        "meta_ephemeris_type": 0,
        "meta_classification_type": "U",
        "meta_norad_cat_id": 36657,
        "meta_element_set_no": 999,
        "meta_rev_at_epoch": 66104,
        "meta_bstar": 0.00095765855,
        "meta_mean_motion_dot": 5.561e-05,
        "meta_mean_motion_ddot": 0,
        "tle_line1": "1 36657U 99025DYB 25336.36501313  .00005561  00000+0  95766-3 0  9995",
        "tle_line2": "2 36657  99.4117 125.7813 0106099  98.4012 262.9231 14.65384436661042"
      },
      "geometry": {
        "type": "Point",
        "coordinates": [
          69.107822686283,
          78.9720041797878
        ]
      }
    }
  ]
}